{"type": "FeatureCollection", "features": [ {"type": "Feature", "properties": {"norad_id": 66645, "name": "SHENZHOU-22", "group": "last-30-days", "lat": 15.16009453362648, "lon": -48.14626151970291, "alt_km": 389.3222382674203, "timestamp": "2025-12-26T08:37:53.289908+00:00", "meta": {"OBJECT_NAME": "SHENZHOU-22", "OBJECT_ID": "2025-272A", "EPOCH": "2025-12-25T20:14:16.934784", "MEAN_MOTION": 15.59690263, "ECCENTRICITY": 0.00084341, "INCLINATION": 41.4681, "RA_OF_ASC_NODE": 297.125, "ARG_OF_PERICENTER": 146.1754, "MEAN_ANOMALY": 213.9624, "EPHEMERIS_TYPE": 0, "CLASSIFICATION_TYPE": "U", "NORAD_CAT_ID": 66645, "ELEMENT_SET_NO": 999, "REV_AT_EPOCH": 26598, "BSTAR": 0.00020858961, "MEAN_MOTION_DOT": 0.00016869, "MEAN_MOTION_DDOT": 0}, "tle": {"line1": "1 66645U 25272A   25359.84325156  .00016869  00000+0  20859-3 0  9999", "line2": "2 66645  41.4681 297.1250 0008434 146.1754 213.9624 15.59690263265989"}}, "geometry": {"type": "Point", "coordinates": [-48.14626151970291, 15.16009453362648]}}, {"type": "Feature", "properties": {"norad_id": 66647, "name": "COSMOS 2597 (RODNIK-S 22)", "group": "last-30-days", "lat": 45.252446135143906, "lon": 90.35509272293825, "alt_km": 1497.2830123089043, "timestamp": "2025-12-26T08:37:53.289918+00:00", "meta": {"OBJECT_NAME": "COSMOS 2597 (RODNIK-S 22)", "OBJECT_ID": "2025-273A", "EPOCH": "2025-12-26T04:02:37.807296", "MEAN_MOTION": 12.41952291, "ECCENTRICITY": 0.00076, "INCLINATION": 82.4994, "RA_OF_ASC_NODE": 278.1109, "ARG_OF_PERICENTER": 254.3394, "MEAN_ANOMALY": 105.6847, "EPHEMERIS_TYPE": 0, "CLASSIFICATION_TYPE": "U", "NORAD_CAT_ID": 66647, "ELEMENT_SET_NO": 999, "REV_AT_EPOCH": 380, "BSTAR": 0.00017102, "MEAN_MOTION_DOT": 3.3e-07, "MEAN_MOTION_DDOT": 0}, "tle": {"line1": "1 66647U 25273A   25360.16849314  .00000033  00000+0  17102-3 0  9999", "line2": "2 66647  82.4994 278.1109 0007600 254.3394 105.6847 12.41952291  3806"}}, "geometry": {"type": "Point", "coordinates": [90.35509272293825, 45.252446135143906]}}, {"type": "Feature", "properties": {"norad_id": 66648, "name": "COSMOS 2598 (RODNIK-S 23)", "group": "last-30-days", "lat": -52.19162424289864, "lon": 107.74661548233532, "alt_km": 1494.0885264968592, "timestamp": "2025-12-26T08:37:53.289930+00:00", "meta": {"OBJECT_NAME": "COSMOS 2598 (RODNIK-S 23)", "OBJECT_ID": "2025-273B", "EPOCH": "2025-12-26T03:31:13.882080", "MEAN_MOTION": 12.43233662, "ECCENTRICITY": 0.0008231, "INCLINATION": 82.5033, "RA_OF_ASC_NODE": 278.1093, "ARG_OF_PERICENTER": 204.9131, "MEAN_ANOMALY": 155.1553, "EPHEMERIS_TYPE": 0, "CLASSIFICATION_TYPE": "U", "NORAD_CAT_ID": 66648, "ELEMENT_SET_NO": 999, "REV_AT_EPOCH": 380, "BSTAR": 0.00015952, "MEAN_MOTION_DOT": 3.2e-07, "MEAN_MOTION_DDOT": 0}, "tle": {"line1": "1 66648U 25273B   25360.14668845  .00000032  00000+0  15952-3 0  9996", "line2": "2 66648  82.5033 278.1093 0008231 204.9131 155.1553 12.43233662  3805"}}, "geometry": {"type": "Point", "coordinates": [107.74661548233532, -52.19162424289864]}}, {"type": "Feature", "properties": {"norad_id": 66649, "name": "COSMOS 2599 (RODNIK-S 24)", "group": "last-30-days", "lat": 74.46311954582148, "lon": -53.71102241247901, "alt_km": 1499.461006454223, "timestamp": "2025-12-26T08:37:53.289943+00:00", "meta": {"OBJECT_NAME": "COSMOS 2599 (RODNIK-S 24)", "OBJECT_ID": "2025-273C", "EPOCH": "2025-12-26T02:25:02.193312", "MEAN_MOTION": 12.41152363, "ECCENTRICITY": 0.0006341, "INCLINATION": 82.505, "RA_OF_ASC_NODE": 278.1894, "ARG_OF_PERICENTER": 242.4866, "MEAN_ANOMALY": 117.5569, "EPHEMERIS_TYPE": 0, "CLASSIFICATION_TYPE": "U", "NORAD_CAT_ID": 66649, "ELEMENT_SET_NO": 999, "REV_AT_EPOCH": 379, "BSTAR": 0.00026117, "MEAN_MOTION_DOT": 4.5e-07, "MEAN_MOTION_DDOT": 0}, "tle": {"line1": "1 66649U 25273C   25360.10071983  .00000045  00000+0  26117-3 0  9993", "line2": "2 66649  82.5050 278.1894 0006341 242.4866 117.5569 12.41152363  3799"}}, "geometry": {"type": "Point", "coordinates": [-53.71102241247901, 74.46311954582148]}}, {"type": "Feature", "properties": {"norad_id": 66650, "name": "BEE-1000", "group": "last-30-days", "lat": -52.810672873463595, "lon": -62.3746966678856, "alt_km": 601.6199858375885, "timestamp": "2025-12-26T08:37:53.289953+00:00", "meta": {"OBJECT_NAME": "BEE-1000", "OBJECT_ID": "2025-274A", "EPOCH": "2025-12-26T00:49:18.622848", "MEAN_MOTION": 14.91705122, "ECCENTRICITY": 0.0011178, "INCLINATION": 97.7406, "RA_OF_ASC_NODE": 286.9787, "ARG_OF_PERICENTER": 202.6994, "MEAN_ANOMALY": 157.3732, "EPHEMERIS_TYPE": 0, "CLASSIFICATION_TYPE": "U", "NORAD_CAT_ID": 66650, "ELEMENT_SET_NO": 999, "REV_AT_EPOCH": 438, "BSTAR": 0.00016751, "MEAN_MOTION_DOT": 1.631e-05, "MEAN_MOTION_DDOT": 0}, "tle": {"line1": "1 66650U 25274A   25360.03424332  .00001631  00000+0  16751-3 0  9993", "line2": "2 66650  97.7406 286.9787 0011178 202.6994 157.3732 14.91705122  4380"}}, "geometry": {"type": "Point", "coordinates": [-62.3746966678856, -52.810672873463595]}}, {"type": "Feature", "properties": {"norad_id": 66651, "name": "2025-274B", "group": "last-30-days", "lat": -40.20559648229701, "lon": -66.09655078368505, "alt_km": 602.4818766019334, "timestamp": "2025-12-26T08:37:53.289964+00:00", "meta": {"OBJECT_NAME": "2025-274B", "OBJECT_ID": "2025-274B", "EPOCH": "2025-12-25T18:19:35.220576", "MEAN_MOTION": 14.91892174, "ECCENTRICITY": 0.00113461, "INCLINATION": 97.7401, "RA_OF_ASC_NODE": 286.7168, "ARG_OF_PERICENTER": 201.7982, "MEAN_ANOMALY": 158.2756, "EPHEMERIS_TYPE": 0, "CLASSIFICATION_TYPE": "U", "NORAD_CAT_ID": 66651, "ELEMENT_SET_NO": 999, "REV_AT_EPOCH": 434, "BSTAR": 0.00042786053, "MEAN_MOTION_DOT": 4.275e-05, "MEAN_MOTION_DDOT": 0}, "tle": {"line1": "1 66651U 25274B   25359.76360209  .00004275  00000+0  42786-3 0  9998", "line2": "2 66651  97.7401 286.7168 0011346 201.7982 158.2756 14.91892174  4347"}}, "geometry": {"type": "Point", "coordinates": [-66.09655078368505, -40.20559648229701]}}, {"type": "Feature", "properties": {"norad_id": 66652, "name": "2025-274C", "group": "last-30-days", "lat": -28.123567566641587, "lon": -68.52201910081833, "alt_km": 601.9741068133735, "timestamp": "2025-12-26T08:37:53.289974+00:00", "meta": {"OBJECT_NAME": "2025-274C", "OBJECT_ID": "2025-274C", "EPOCH": "2025-12-25T18:16:20.419680", "MEAN_MOTION": 14.91976974, "ECCENTRICITY": 0.00108742, "INCLINATION": 97.7406, "RA_OF_ASC_NODE": 286.7213, "ARG_OF_PERICENTER": 208.6516, "MEAN_ANOMALY": 151.4107, "EPHEMERIS_TYPE": 0, "CLASSIFICATION_TYPE": "U", "NORAD_CAT_ID": 66652, "ELEMENT_SET_NO": 999, "REV_AT_EPOCH": 434, "BSTAR": 0.00035574365, "MEAN_MOTION_DOT": 3.552e-05, "MEAN_MOTION_DDOT": 0}, "tle": {"line1": "1 66652U 25274C   25359.76134745  .00003552  00000+0  35574-3 0  9997", "line2": "2 66652  97.7406 286.7213 0010874 208.6516 151.4107 14.91976974  4344"}}, "geometry": {"type": "Point", "coordinates": [-68.52201910081833, -28.123567566641587]}}, {"type": "Feature", "properties": {"norad_id": 66653, "name": "2025-274D", "group": "last-30-days", "lat": -27.801291552502526, "lon": -68.57879882035775, "alt_km": 602.8253710298186, "timestamp": "2025-12-26T08:37:53.289984+00:00", "meta": {"OBJECT_NAME": "2025-274D", "OBJECT_ID": "2025-274D", "EPOCH": "2025-12-26T00:42:33.283296", "MEAN_MOTION": 14.91968008, "ECCENTRICITY": 0.0011877, "INCLINATION": 97.7404, "RA_OF_ASC_NODE": 286.9844, "ARG_OF_PERICENTER": 204.3083, "MEAN_ANOMALY": 155.7577, "EPHEMERIS_TYPE": 0, "CLASSIFICATION_TYPE": "U", "NORAD_CAT_ID": 66653, "ELEMENT_SET_NO": 999, "REV_AT_EPOCH": 438, "BSTAR": 0.00025673, "MEAN_MOTION_DOT": 2.547e-05, "MEAN_MOTION_DDOT": 0}, "tle": {"line1": "1 66653U 25274D   25360.02955189  .00002547  00000+0  25673-3 0  9994", "line2": "2 66653  97.7404 286.9844 0011877 204.3083 155.7577 14.91968008  4382"}}, "geometry": {"type": "Point", "coordinates": [-68.57879882035775, -27.801291552502526]}}, {"type": "Feature", "properties": {"norad_id": 66654, "name": "JACK E", "group": "last-30-days", "lat": -9.473918010029497, "lon": -71.38190231730285, "alt_km": 602.5253723039805, "timestamp": "2025-12-26T08:37:53.289994+00:00", "meta": {"OBJECT_NAME": "JACK E", "OBJECT_ID": "2025-274E", "EPOCH": "2025-12-25T18:11:22.632576", "MEAN_MOTION": 14.9215245, "ECCENTRICITY": 0.00123974, "INCLINATION": 97.7406, "RA_OF_ASC_NODE": 286.7263, "ARG_OF_PERICENTER": 206.9936, "MEAN_ANOMALY": 153.064, "EPHEMERIS_TYPE": 0, "CLASSIFICATION_TYPE": "U", "NORAD_CAT_ID": 66654, "ELEMENT_SET_NO": 999, "REV_AT_EPOCH": 434, "BSTAR": 0.00032962854, "MEAN_MOTION_DOT": 3.303e-05, "MEAN_MOTION_DDOT": 0}, "tle": {"line1": "1 66654U 25274E   25359.75790084  .00003303  00000+0  32963-3 0  9995", "line2": "2 66654  97.7406 286.7263 0012397 206.9936 153.0640 14.92152450  4346"}}, "geometry": {"type": "Point", "coordinates": [-71.38190231730285, -9.473918010029497]}}, {"type": "Feature", "properties": {"norad_id": 66655, "name": "2025-274F", "group": "last-30-days", "lat": -51.77903424343696, "lon": -62.77470568214217, "alt_km": 598.4036210721051, "timestamp": "2025-12-26T08:37:53.290004+00:00", "meta": {"OBJECT_NAME": "2025-274F", "OBJECT_ID": "2025-274F", "EPOCH": "2025-12-25T18:22:19.797024", "MEAN_MOTION": 14.91199318, "ECCENTRICITY": 0.00044552, "INCLINATION": 97.7336, "RA_OF_ASC_NODE": 286.7062, "ARG_OF_PERICENTER": 336.6899, "MEAN_ANOMALY": 23.4117, "EPHEMERIS_TYPE": 0, "CLASSIFICATION_TYPE": "U", "NORAD_CAT_ID": 66655, "ELEMENT_SET_NO": 999, "REV_AT_EPOCH": 434, "BSTAR": 1.0624922e-05, "MEAN_MOTION_DOT": 5.1e-07, "MEAN_MOTION_DDOT": 0}, "tle": {"line1": "1 66655U 25274F   25359.76550691  .00000051  00000+0  10625-4 0  9994", "line2": "2 66655  97.7336 286.7062 0004455 336.6899  23.4117 14.91199318  4343"}}, "geometry": {"type": "Point", "coordinates": [-62.77470568214217, -51.77903424343696]}}]}